{"features":[{"type":"Feature","properties":{"divipola":44110,"mpio_cdpmp":"44110","mpio_cnmbr":"EL MOLINO","dpto_cnmbr":"LA GUAJIRA"},"geometry":{"type":"Polygon","coordinates":[[[-72.969,10.7164],[-72.99,10.7041],[-73.0133,10.6681],[-72.9868,10.6694],[-72.9853,10.6562],[-72.9573,10.6378],[-72.9546,10.6204],[-72.9377,10.6094],[-72.9079,10.5997],[-72.8906,10.5855],[-72.8752,10.5636],[-72.858,10.5578],[-72.8563,10.5471],[-72.8425,10.5391],[-72.8343,10.54],[-72.8252,10.5496],[-72.8223,10.5676],[-72.7928,10.5885],[-72.7898,10.6038],[-72.7814,10.6124],[-72.8212,10.6814],[-72.8622,10.6784],[-72.8691,10.6896],[-72.8881,10.6855],[-72.9028,10.6952],[-72.9286,10.6996],[-72.948,10.7116],[-72.9534,10.7096],[-72.9605,10.7161],[-72.969,10.7164]]]}},{"type":"Feature","properties":{"divipola":44279,"mpio_cdpmp":"44279","mpio_cnmbr":"FONSECA","dpto_cnmbr":"LA GUAJIRA"},"geometry":{"type":"Polygon","coordinates":[[[-72.9106,11.0334],[-72.9148,11.0319],[-72.9137,11.0245],[-72.9212,11.0112],[-72.923,10.991],[-72.915,10.9711],[-72.9216,10.9507],[-72.914,10.9429],[-72.9118,10.9493],[-72.905,10.943],[-72.9019,10.9244],[-72.8969,10.9283],[-72.8907,10.9212],[-72.885,10.9217],[-72.8789,10.912],[-72.8718,10.9143],[-72.8733,10.908],[-72.8801,10.9078],[-72.8743,10.9],[-72.8781,10.8988],[-72.882,10.8782],[-72.8793,10.8577],[-72.8723,10.8563],[-72.8723,10.8397],[-72.8924,10.831],[-72.8971,10.8212],[-72.8805,10.7947],[-72.8989,10.7902],[-72.89,10.7767],[-72.8752,10.77],[-72.8422,10.7668],[-72.8388,10.777],[-72.8343,10.7753],[-72.8237,10.7054],[-72.8141,10.7017],[-72.806,10.7098],[-72.7916,10.7104],[-72.7708,10.6989],[-72.7533,10.658],[-72.7486,10.6582],[-72.7482,10.6523],[-72.7401,10.652],[-72.7394,10.6704],[-72.7297,10.6963],[-72.7159,10.7061],[-72.7193,10.7214],[-72.7141,10.7339],[-72.7177,10.7391],[-72.7114,10.7521],[-72.7049,10.7585],[-72.6894,10.7572],[-72.6799,10.7642],[-72.6828,10.7701],[-72.6782,10.7834],[-72.6827,10.7958],[-72.6754,10.8066],[-72.676,10.8193],[-72.6954,10.8423],[-72.7181,10.8572],[-72.7206,10.8651],[-72.727,10.8634],[-72.7356,10.8703],[-72.746,10.8682],[-72.7538,10.8752],[-72.7739,10.8804],[-72.7836,10.8778],[-72.7954,10.8906],[-72.7949,10.9035],[-72.8093,10.9259],[-72.8372,10.9339],[-72.854,10.9783],[-72.8661,10.9907],[-72.8792,10.9961],[-72.9106,11.0334]]]}},{"type":"Feature","properties":{"divipola":44378,"mpio_cdpmp":"44378","mpio_cnmbr":"HATONUEVO","dpto_cnmbr":"LA GUAJIRA"},"geometry":{"type":"MultiPolygon","coordinates":[[[[-72.6568,11.1663],[-72.6618,11.1683],[-72.6687,11.1617],[-72.6972,11.166],[-72.7159,11.1605],[-72.7331,11.1482],[-72.7515,11.148],[-72.7753,11.1367],[-72.7825,11.1378],[-72.8205,11.1089],[-72.8568,11.097],[-72.8534,11.0849],[-72.8279,11.0668],[-72.8163,11.066],[-72.8118,11.0608],[-72.8029,11.0628],[-72.7628,11.0326],[-72.7489,11.0271],[-72.7339,11.0311],[-72.7267,11.0233],[-72.7203,11.0307],[-72.7158,11.027],[-72.7126,11.0348],[-72.7052,11.0348],[-72.7062,11.0469],[-72.6984,11.0514],[-72.6981,11.0596],[-72.6866,11.0649],[-72.6931,11.0747],[-72.6375,11.1224],[-72.6483,11.1253],[-72.6387,11.1307],[-72.6393,11.1375],[-72.6579,11.1512],[-72.658,11.1564],[-72.6484,11.1641],[-72.6568,11.1663]]],[[[-72.59,11.1423],[-72.5994,11.1397],[-72.6022,11.133],[-72.6137,11.1344],[-72.6197,11.1267],[-72.6169,11.1235],[-72.6294,11.1209],[-72.626,11.1147],[-72.6151,11.1213],[-72.6157,11.1268],[-72.6017,11.1295],[-72.595,11.1366],[-72.6011,11.1243],[-72.5938,11.1103],[-72.5839,11.11],[-72.5772,11.1044],[-72.559,11.1069],[-72.5375,11.0934],[-72.5108,11.0937],[-72.4997,11.0788],[-72.4924,11.0797],[-72.5103,11.0966],[-72.5359,11.0959],[-72.5606,11.1111],[-72.5765,11.1071],[-72.5821,11.1134],[-72.5922,11.1126],[-72.5981,11.1244],[-72.59,11.1423]]]]}},{"type":"Feature","properties":{"divipola":44420,"mpio_cdpmp":"44420","mpio_cnmbr":"LA JAGUA DEL PILAR","dpto_cnmbr":"LA GUAJIRA"},"geometry":{"type":"Polygon","coordinates":[[[-73.0858,10.535],[-73.1107,10.4951],[-73.135,10.4975],[-73.1539,10.4852],[-73.1676,10.4924],[-73.164,10.4845],[-73.1749,10.4812],[-73.1707,10.473],[-73.1764,10.4735],[-73.1816,10.4665],[-73.1779,10.4566],[-73.1687,10.4619],[-73.1543,10.4524],[-73.1423,10.4368],[-73.146,10.4006],[-73.1423,10.3968],[-73.1274,10.3992],[-73.0845,10.4263],[-73.0711,10.4239],[-73.0369,10.4035],[-73.0162,10.4118],[-73.0105,10.4045],[-72.9867,10.4005],[-72.9576,10.4131],[-72.9425,10.427],[-72.901,10.4343],[-72.8868,10.4532],[-72.9176,10.4533],[-72.9176,10.4443],[-72.9359,10.4444],[-72.9359,10.4353],[-72.9633,10.4354],[-72.9634,10.4264],[-72.9816,10.4265],[-72.9817,10.4174],[-73.0273,10.4175],[-73.0271,10.5172],[-73.0727,10.5171],[-73.0725,10.5285],[-73.0858,10.535]]]}},{"type":"Feature","properties":{"divipola":44855,"mpio_cdpmp":"44855","mpio_cnmbr":"URUMITA","dpto_cnmbr":"LA GUAJIRA"},"geometry":{"type":"Polygon","coordinates":[[[-73.0093,10.5693],[-73.0113,10.5727],[-73.0239,10.5619],[-73.0526,10.564],[-73.0787,10.5525],[-73.0982,10.5533],[-73.1059,10.5403],[-73.1148,10.5401],[-73.1234,10.5271],[-73.1376,10.5303],[-73.1395,10.5142],[-73.1495,10.5081],[-73.1441,10.5048],[-73.1449,10.4995],[-73.1561,10.4977],[-73.1627,10.4894],[-73.1539,10.4852],[-73.135,10.4975],[-73.1107,10.4951],[-73.0863,10.5353],[-73.0725,10.5285],[-73.0727,10.5171],[-73.0271,10.5172],[-73.0273,10.4175],[-72.9817,10.4174],[-72.9816,10.4265],[-72.9634,10.4264],[-72.9633,10.4354],[-72.9359,10.4353],[-72.9359,10.4444],[-72.9176,10.4443],[-72.9176,10.4533],[-72.8761,10.4537],[-72.8627,10.4634],[-72.8536,10.4807],[-72.8447,10.4852],[-72.8433,10.5079],[-72.8706,10.5147],[-72.8878,10.5042],[-72.9127,10.5072],[-72.9129,10.5155],[-72.9329,10.5179],[-72.9535,10.5266],[-72.9593,10.5369],[-72.9702,10.5381],[-72.9923,10.5519],[-73.003,10.552],[-73.0093,10.5693]]]}},{"type":"Feature","properties":{"divipola":44874,"mpio_cdpmp":"44874","mpio_cnmbr":"VILLANUEVA","dpto_cnmbr":"LA GUAJIRA"},"geometry":{"type":"Polygon","coordinates":[[[-72.9918,10.6699],[-73.026,10.6668],[-73.0397,10.6541],[-73.0793,10.6342],[-73.0888,10.6155],[-73.0851,10.591],[-73.1013,10.5721],[-73.0954,10.5583],[-73.0991,10.5524],[-73.0787,10.5525],[-73.0526,10.564],[-73.0236,10.5619],[-73.0113,10.5727],[-73.0037,10.5524],[-72.9923,10.5519],[-72.9702,10.5381],[-72.9593,10.5369],[-72.9535,10.5266],[-72.9329,10.5179],[-72.9129,10.5155],[-72.9127,10.5072],[-72.8878,10.5042],[-72.8706,10.5147],[-72.8387,10.5092],[-72.8344,10.5185],[-72.8384,10.5314],[-72.8452,10.5439],[-72.8566,10.5474],[-72.858,10.5578],[-72.8752,10.5636],[-72.8906,10.5855],[-72.9079,10.5997],[-72.9377,10.6094],[-72.9546,10.6204],[-72.9587,10.6399],[-72.9848,10.6557],[-72.9867,10.6692],[-72.9918,10.6699]]]}},{"type":"Feature","properties":{"divipola":44001,"mpio_cdpmp":"44001","mpio_cnmbr":"RIOHACHA","dpto_cnmbr":"LA GUAJIRA"},"geometry":{"type":"Polygon","coordinates":[[[-72.8902,11.5597],[-72.9109,11.5538],[-72.9629,11.5224],[-72.9918,11.5128],[-73.0292,11.4918],[-73.0939,11.4262],[-73.143,11.4076],[-73.1596,11.385],[-73.1891,11.3659],[-73.1957,11.345],[-73.2168,11.3299],[-73.2086,11.309],[-73.197,11.3063],[-73.1804,11.2795],[-73.153,11.2539],[-73.1459,11.2536],[-73.1546,11.2482],[-73.1565,11.2357],[-73.1638,11.2274],[-73.1602,11.2102],[-73.1659,11.2052],[-73.1645,11.1874],[-73.1692,11.1777],[-73.1783,11.1735],[-73.1823,11.162],[-73.2112,11.1554],[-73.2114,11.1346],[-73.2369,11.0967],[-73.2508,11.0906],[-73.2523,11.0844],[-73.2615,11.0827],[-73.2658,11.0753],[-73.3057,11.0586],[-73.308,11.0505],[-73.3231,11.0423],[-73.3286,11.0255],[-73.3143,11.0077],[-73.322,10.9968],[-73.3207,10.9864],[-73.3294,10.9734],[-73.3608,10.9668],[-73.3644,10.9433],[-73.3847,10.9275],[-73.3858,10.9165],[-73.3551,10.9185],[-73.3414,10.9102],[-73.3203,10.9239],[-73.2978,10.9255],[-73.291,10.937],[-73.2821,10.9396],[-73.2607,10.9297],[-73.2058,10.9391],[-73.2051,10.9344],[-73.1983,10.9326],[-73.1932,10.9431],[-73.1574,10.9505],[-73.1147,10.9871],[-73.0921,10.9734],[-73.0783,10.9713],[-73.082,10.9757],[-73.076,10.9908],[-73.0648,10.9909],[-73.0475,11.0067],[-73.0305,11.0134],[-73.0151,11.0079],[-72.9999,11.0238],[-72.9859,11.0304],[-72.9724,11.0258],[-72.9495,11.0294],[-72.9387,11.0177],[-72.9319,11.0178],[-72.9232,11.0307],[-72.9128,11.0321],[-72.8972,11.0482],[-72.8849,11.0698],[-72.8695,11.077],[-72.8675,11.0959],[-72.8513,11.0963],[-72.8217,11.1084],[-72.7887,11.135],[-72.7523,11.1478],[-72.7331,11.1482],[-72.7094,11.1628],[-72.6893,11.1671],[-72.6684,11.1617],[-72.6602,11.1686],[-72.6473,11.1628],[-72.6421,11.1838],[-72.6475,11.1909],[-72.6477,11.2114],[-72.6435,11.2168],[-72.6215,11.2097],[-72.6155,11.2155],[-72.6188,11.2299],[-72.6094,11.2326],[-72.6023,11.2444],[-72.6154,11.2922],[-72.6093,11.3041],[-72.6183,11.3158],[-72.6131,11.3235],[-72.6129,11.3512],[-72.6183,11.3526],[-72.6252,11.379],[-72.6311,11.3819],[-72.6315,11.4],[-72.6409,11.4229],[-72.6562,11.4375],[-72.6616,11.4353],[-72.6811,11.4415],[-72.6838,11.4381],[-72.6933,11.4484],[-72.6982,11.4452],[-72.6969,11.4585],[-72.7091,11.4664],[-72.7058,11.4725],[-72.7149,11.4747],[-72.714,11.482],[-72.7336,11.4805],[-72.734,11.4848],[-72.7575,11.478],[-72.7682,11.4922],[-72.7853,11.4874],[-72.786,11.5062],[-72.7931,11.5082],[-72.8024,11.5027],[-72.812,11.5103],[-72.8308,11.51],[-72.839,11.5153],[-72.8549,11.5101],[-72.866,11.5173],[-72.8654,11.525],[-72.8778,11.5282],[-72.8783,11.5367],[-72.8819,11.5346],[-72.88,11.5381],[-72.8857,11.5401],[-72.88,11.5506],[-72.8902,11.5597]]]}},{"type":"Feature","properties":{"divipola":44035,"mpio_cdpmp":"44035","mpio_cnmbr":"ALBANIA","dpto_cnmbr":"LA GUAJIRA"},"geometry":{"type":"Polygon","coordinates":[[[-72.5225,11.4072],[-72.5412,11.3952],[-72.5733,11.3991],[-72.5851,11.3874],[-72.5857,11.3804],[-72.5658,11.3761],[-72.5668,11.3691],[-72.5795,11.3575],[-72.5711,11.3577],[-72.5761,11.3372],[-72.5892,11.3403],[-72.5932,11.3354],[-72.5891,11.3257],[-72.596,11.3267],[-72.602,11.3172],[-72.6141,11.3227],[-72.6183,11.3196],[-72.6093,11.3041],[-72.6154,11.2922],[-72.6049,11.2636],[-72.6029,11.2392],[-72.6188,11.2299],[-72.6155,11.2155],[-72.6215,11.2097],[-72.6453,11.2155],[-72.6475,11.1912],[-72.6421,11.1838],[-72.6473,11.1628],[-72.6534,11.1623],[-72.6586,11.1538],[-72.6393,11.1375],[-72.6387,11.1307],[-72.6478,11.1267],[-72.6464,11.1222],[-72.6413,11.1254],[-72.6317,11.1164],[-72.6294,11.1209],[-72.6217,11.1195],[-72.6137,11.1344],[-72.6021,11.1331],[-72.5911,11.1435],[-72.5869,11.1423],[-72.5981,11.1244],[-72.5922,11.1126],[-72.5821,11.1134],[-72.5765,11.1071],[-72.5606,11.1111],[-72.5359,11.0959],[-72.5103,11.0966],[-72.497,11.0809],[-72.4983,11.0851],[-72.4856,11.0983],[-72.4593,11.1181],[-72.4834,11.1383],[-72.4992,11.1348],[-72.508,11.1422],[-72.5151,11.1422],[-72.528,11.1613],[-72.5159,11.1633],[-72.5049,11.1588],[-72.4954,11.152],[-72.4991,11.1423],[-72.485,11.1535],[-72.4367,11.1516],[-72.4372,11.1614],[-72.4038,11.1684],[-72.4116,11.1806],[-72.4088,11.1876],[-72.4154,11.2306],[-72.4297,11.2413],[-72.4306,11.2641],[-72.4391,11.2841],[-72.4505,11.3005],[-72.4727,11.3062],[-72.4883,11.3196],[-72.4878,11.338],[-72.5068,11.3501],[-72.5116,11.3708],[-72.5196,11.3783],[-72.5248,11.3967],[-72.5225,11.4072]]]}},{"type":"Feature","properties":{"divipola":44090,"mpio_cdpmp":"44090","mpio_cnmbr":"DIBULLA","dpto_cnmbr":"LA GUAJIRA"},"geometry":{"type":"Polygon","coordinates":[[[-73.2139,11.3245],[-73.218,11.3293],[-73.2511,11.3087],[-73.2538,11.302],[-73.2767,11.2858],[-73.3477,11.2639],[-73.4171,11.2627],[-73.436,11.2574],[-73.4845,11.2632],[-73.5319,11.2511],[-73.5749,11.2597],[-73.5655,11.2552],[-73.5681,11.2327],[-73.5781,11.2297],[-73.5726,11.2252],[-73.5788,11.2249],[-73.5745,11.2183],[-73.582,11.2165],[-73.5839,11.1894],[-73.5915,11.1885],[-73.5913,11.1784],[-73.5981,11.1796],[-73.6104,11.1714],[-73.6086,11.1631],[-73.6133,11.1655],[-73.6198,11.1617],[-73.6168,11.1536],[-73.6275,11.1417],[-73.6343,11.1463],[-73.6341,11.1418],[-73.6446,11.1446],[-73.6448,11.1376],[-73.6533,11.1376],[-73.652,11.1275],[-73.6433,11.1234],[-73.6374,11.1088],[-73.6509,11.0885],[-73.6486,11.0817],[-73.6409,11.0779],[-73.6474,11.0755],[-73.641,11.0707],[-73.65,11.0608],[-73.6411,11.0544],[-73.6355,11.0416],[-73.653,11.0306],[-73.6486,11.0158],[-73.6649,10.9899],[-73.6617,10.9809],[-73.6426,10.9672],[-73.6439,10.9563],[-73.6366,10.9406],[-73.6404,10.9292],[-73.636,10.9079],[-73.6284,10.8923],[-73.6146,10.8809],[-73.6111,10.8603],[-73.5986,10.836],[-73.5619,10.8471],[-73.5198,10.8477],[-73.4794,10.8672],[-73.467,10.8664],[-73.4358,10.876],[-73.4195,10.8938],[-73.4072,10.8963],[-73.3858,10.9165],[-73.3847,10.9275],[-73.3644,10.9433],[-73.3608,10.9668],[-73.326,10.9764],[-73.3273,10.9809],[-73.3194,10.9897],[-73.3219,10.9969],[-73.3142,11.0073],[-73.3286,11.0255],[-73.3231,11.0423],[-73.308,11.0505],[-73.3057,11.0586],[-73.2658,11.0753],[-73.2615,11.0827],[-73.2523,11.0844],[-73.2508,11.0906],[-73.2369,11.0967],[-73.2114,11.1346],[-73.2112,11.1554],[-73.1823,11.162],[-73.1783,11.1735],[-73.1692,11.1777],[-73.1645,11.1874],[-73.1659,11.2052],[-73.1602,11.2102],[-73.1638,11.2274],[-73.1565,11.2357],[-73.1546,11.2482],[-73.1459,11.2536],[-73.153,11.2539],[-73.1804,11.2795],[-73.192,11.2927],[-73.1928,11.3018],[-73.214,11.3159],[-73.2139,11.3245]]]}},{"type":"Feature","properties":{"divipola":44650,"mpio_cdpmp":"44650","mpio_cnmbr":"SAN JUAN DEL CESAR","dpto_cnmbr":"LA GUAJIRA"},"geometry":{"type":"Polygon","coordinates":[[[-73.03,11.0133],[-73.0475,11.0067],[-73.0648,10.9909],[-73.0791,10.9886],[-73.082,10.9756],[-73.0783,10.9713],[-73.0921,10.9734],[-73.1147,10.9871],[-73.1574,10.9505],[-73.1932,10.9431],[-73.1983,10.9326],[-73.2051,10.9344],[-73.2058,10.9391],[-73.2607,10.9297],[-73.2821,10.9396],[-73.291,10.937],[-73.2978,10.9255],[-73.3203,10.9239],[-73.3414,10.9102],[-73.3551,10.9185],[-73.3858,10.9165],[-73.4072,10.8963],[-73.4195,10.8938],[-73.4311,10.8786],[-73.467,10.8664],[-73.3932,10.8675],[-73.3736,10.8581],[-73.3375,10.8626],[-73.3252,10.8582],[-73.3123,10.8462],[-73.2899,10.8623],[-73.2799,10.857],[-73.2772,10.8476],[-73.265,10.845],[-73.2644,10.8312],[-73.2555,10.8272],[-73.2522,10.8128],[-73.2558,10.8087],[-73.2515,10.8043],[-73.2593,10.7851],[-73.2524,10.7707],[-73.2751,10.7415],[-73.2778,10.7264],[-73.2643,10.7321],[-73.2483,10.7315],[-73.2373,10.7405],[-73.2295,10.732],[-73.2151,10.7305],[-73.2076,10.7075],[-73.1571,10.7154],[-73.1604,10.7124],[-73.1573,10.7037],[-73.1461,10.6915],[-73.1066,10.6771],[-73.0964,10.6595],[-73.0983,10.6512],[-73.0817,10.6276],[-73.0793,10.6342],[-73.0397,10.6541],[-73.0351,10.662],[-73.0137,10.6673],[-72.99,10.7041],[-72.9699,10.7164],[-72.9605,10.7161],[-72.9534,10.7096],[-72.948,10.7116],[-72.9286,10.6996],[-72.9028,10.6952],[-72.8881,10.6855],[-72.8691,10.6896],[-72.8622,10.6784],[-72.8213,10.6815],[-72.7814,10.6124],[-72.7582,10.6275],[-72.75,10.6345],[-72.7485,10.658],[-72.7533,10.658],[-72.7708,10.6989],[-72.7916,10.7104],[-72.806,10.7098],[-72.8142,10.7017],[-72.8259,10.7091],[-72.8343,10.7753],[-72.8388,10.777],[-72.8422,10.7668],[-72.884,10.7731],[-72.9193,10.8159],[-72.9436,10.8246],[-72.9505,10.8609],[-72.9407,10.8755],[-72.9535,10.8904],[-72.9787,10.8941],[-72.9946,10.8884],[-73.0014,10.8792],[-73.0018,10.8955],[-72.9968,10.9035],[-73.0198,10.9104],[-73.0157,10.9167],[-73.0181,10.9329],[-72.9987,10.9547],[-73.007,10.9626],[-73.0025,10.9706],[-73.0068,10.982],[-73.0185,10.9914],[-73.0167,11.0047],[-73.03,11.0133]]]}},{"type":"Feature","properties":{"divipola":44847,"mpio_cdpmp":"44847","mpio_cnmbr":"URIBIA","dpto_cnmbr":"LA GUAJIRA"},"geometry":{"type":"Polygon","coordinates":[[[-71.652,12.4558],[-71.6707,12.4594],[-71.6931,12.4457],[-71.7193,12.4375],[-71.7305,12.4269],[-71.7363,12.4137],[-71.7309,12.4087],[-71.7119,12.4175],[-71.7014,12.434],[-71.6847,12.4429],[-71.684,12.4362],[-71.7022,12.4209],[-71.6995,12.4173],[-71.683,12.4225],[-71.6718,12.4321],[-71.674,12.4268],[-71.6684,12.4257],[-71.6594,12.4337],[-71.6471,12.4311],[-71.6578,12.4269],[-71.6488,12.4244],[-71.6648,12.4182],[-71.6763,12.4046],[-71.6706,12.402],[-71.6586,12.4054],[-71.6631,12.409],[-71.6567,12.4117],[-71.6347,12.4157],[-71.6286,12.413],[-71.6271,12.4082],[-71.6346,12.4034],[-71.6402,12.4022],[-71.639,12.4068],[-71.6446,12.4046],[-71.6474,12.4086],[-71.6491,12.4029],[-71.6746,12.3893],[-71.6957,12.3923],[-71.6897,12.3888],[-71.7002,12.3816],[-71.6854,12.3727],[-71.6933,12.3641],[-71.7013,12.3623],[-71.6935,12.3681],[-71.7029,12.3767],[-71.7106,12.3738],[-71.7061,12.3746],[-71.71,12.369],[-71.7185,12.3769],[-71.7222,12.3704],[-71.7257,12.3871],[-71.7123,12.3939],[-71.7113,12.4004],[-71.7178,12.4119],[-71.7246,12.4115],[-71.7345,12.3938],[-71.7619,12.381],[-71.7445,12.3783],[-71.7373,12.3684],[-71.7394,12.3521],[-71.7563,12.3328],[-71.7938,12.3286],[-71.8029,12.3058],[-71.8207,12.3104],[-71.8307,12.3203],[-71.8398,12.3398],[-71.8378,12.3456],[-71.8068,12.3662],[-71.8101,12.3719],[-71.8227,12.372],[-71.8256,12.3626],[-71.8409,12.3515],[-71.8601,12.3562],[-71.8994,12.3151],[-71.928,12.2976],[-71.9415,12.281],[-71.9557,12.2729],[-71.9455,12.2658],[-71.9441,12.2594],[-71.945,12.2708],[-71.9399,12.2758],[-71.9132,12.2719],[-71.9139,12.2755],[-71.9076,12.2771],[-71.8912,12.2753],[-71.8863,12.2673],[-71.8917,12.2627],[-71.8903,12.2514],[-71.8849,12.2472],[-71.8808,12.2533],[-71.8703,12.2476],[-71.8693,12.2426],[-71.8767,12.2436],[-71.8799,12.2359],[-71.8615,12.2173],[-71.8615,12.205],[-71.8672,12.206],[-71.8621,12.1962],[-71.8685,12.1909],[-71.879,12.1942],[-71.8839,12.1913],[-71.8889,12.1933],[-71.8876,12.1977],[-71.8888,12.1924],[-71.8998,12.194],[-71.9146,12.1821],[-71.9249,12.1839],[-71.9178,12.1664],[-71.9295,12.1587],[-71.93,12.1511],[-71.9446,12.1606],[-71.9387,12.153],[-71.9472,12.1515],[-71.95,12.1552],[-71.9469,12.1571],[-71.9632,12.1495],[-71.9608,12.1797],[-71.9655,12.1764],[-71.9612,12.1734],[-71.9679,12.1656],[-71.9647,12.1646],[-71.9704,12.1624],[-71.9686,12.1571],[-71.9656,12.1595],[-71.9658,12.1469],[-71.973,12.1566],[-71.9752,12.151],[-71.9865,12.1476],[-71.9789,12.1723],[-71.9824,12.1811],[-72.0009,12.1863],[-71.9957,12.2002],[-71.9879,12.1984],[-71.9886,12.2101],[-71.9699,12.2195],[-71.9643,12.2282],[-71.9568,12.2486],[-71.9589,12.2546],[-71.9624,12.2525],[-71.9612,12.2577],[-72.0108,12.2428],[-72.0309,12.2431],[-72.0837,12.2309],[-72.1432,12.2394],[-72.144,12.2339],[-72.1566,12.2321],[-72.1651,12.2259],[-72.165,12.221],[-72.1788,12.2167],[-72.18,12.2069],[-72.1524,12.2054],[-72.1481,12.1993],[-72.1388,12.1046],[-72.1591,12.0464],[-72.1993,11.9775],[-72.2147,11.9304],[-72.2248,11.9135],[-72.2467,11.8923],[-72.2342,11.8927],[-72.2255,11.9],[-72.2257,11.8934],[-72.2454,11.878],[-72.2519,11.8805],[-72.2488,11.891],[-72.2938,11.8589],[-72.3178,11.8502],[-72.3551,11.8281],[-72.331,11.7723],[-72.3469,11.7597],[-72.3441,11.7497],[-72.3523,11.7337],[-72.3515,11.7259],[-72.3547,11.7222],[-72.3606,11.7248],[-72.368,11.7097],[-72.3713,11.698],[-72.3631,11.675],[-72.3643,11.6701],[-72.3729,11.6702],[-72.3802,11.655],[-72.3787,11.6372],[-72.3715,11.6228],[-72.3403,11.6108],[-72.3283,11.6009],[-72.3201,11.5878],[-72.3198,11.5543],[-72.2953,11.5516],[-72.2669,11.5281],[-72.2338,11.5269],[-72.2318,11.5233],[-72.1655,11.5302],[-72.1507,11.5369],[-72.142,11.5298],[-72.1248,11.5328],[-72.0392,11.6706],[-72.0196,11.6926],[-71.9936,11.6944],[-71.9878,11.6777],[-71.9777,11.6725],[-71.9794,11.6309],[-71.9714,11.6463],[-71.8022,11.68],[-71.611,11.7463],[-71.4831,11.7791],[-71.3784,11.8121],[-71.3874,11.8152],[-71.3885,11.828],[-71.3793,11.8325],[-71.3624,11.827],[-71.3657,11.8302],[-71.3631,11.8411],[-71.3596,11.8352],[-71.3452,11.8374],[-71.3382,11.8422],[-71.3453,11.8399],[-71.3474,11.8438],[-71.3332,11.8504],[-71.3345,11.8442],[-71.3307,11.846],[-71.3239,11.8335],[-71.3222,11.8594],[-71.3118,11.8801],[-71.302,11.8882],[-71.2988,11.9057],[-71.2901,11.914],[-71.3004,11.9166],[-71.3154,11.9025],[-71.3263,11.9016],[-71.3324,11.9071],[-71.3274,11.909],[-71.327,11.9212],[-71.312,11.915],[-71.3039,11.9225],[-71.3129,11.9214],[-71.3149,11.9269],[-71.3109,11.9289],[-71.3015,11.9182],[-71.2901,11.9163],[-71.2891,11.91],[-71.2822,11.9061],[-71.2679,11.9141],[-71.2542,11.936],[-71.219,11.9642],[-71.1906,11.9813],[-71.1804,11.9801],[-71.1749,11.9894],[-71.1673,11.9874],[-71.1523,11.9992],[-71.1361,12.0027],[-71.1161,12.0347],[-71.1151,12.086],[-71.2196,12.2603],[-71.2251,12.2739],[-71.2228,12.2924],[-71.2283,12.3006],[-71.2572,12.3198],[-71.2682,12.3335],[-71.3017,12.3534],[-71.3124,12.3568],[-71.3135,12.3505],[-71.3228,12.3477],[-71.3527,12.3683],[-71.4026,12.384],[-71.4152,12.381],[-71.4277,12.3864],[-71.4366,12.3807],[-71.4604,12.4074],[-71.5261,12.4373],[-71.5306,12.435],[-71.5427,12.4404],[-71.5568,12.4349],[-71.5742,12.4442],[-71.5767,12.4359],[-71.6107,12.437],[-71.652,12.4558]]]}},{"type":"Feature","properties":{"divipola":44430,"mpio_cdpmp":"44430","mpio_cnmbr":"MAICAO","dpto_cnmbr":"LA GUAJIRA"},"geometry":{"type":"Polygon","coordinates":[[[-71.9997,11.6929],[-72.0196,11.6926],[-72.0392,11.6706],[-72.1248,11.5328],[-72.142,11.5298],[-72.1507,11.5369],[-72.1655,11.5302],[-72.2318,11.5233],[-72.2457,11.528],[-72.3818,11.5255],[-72.3983,11.5013],[-72.4854,11.4663],[-72.49,11.4536],[-72.5319,11.4541],[-72.5322,11.4456],[-72.5367,11.4434],[-72.6051,11.459],[-72.6158,11.428],[-72.632,11.4239],[-72.6477,11.4284],[-72.6368,11.4157],[-72.6311,11.3819],[-72.6252,11.379],[-72.6183,11.3526],[-72.6129,11.3512],[-72.6155,11.328],[-72.6107,11.319],[-72.602,11.3172],[-72.596,11.3267],[-72.5891,11.3257],[-72.5932,11.3354],[-72.5875,11.3415],[-72.576,11.3374],[-72.5711,11.3577],[-72.5795,11.3575],[-72.5668,11.3691],[-72.5658,11.3761],[-72.5857,11.3804],[-72.5846,11.3881],[-72.5733,11.3991],[-72.5406,11.3953],[-72.5229,11.4088],[-72.5248,11.3967],[-72.5196,11.3783],[-72.5116,11.3708],[-72.5068,11.3501],[-72.4878,11.338],[-72.4883,11.3196],[-72.4727,11.3062],[-72.4504,11.3005],[-72.4361,11.2776],[-72.4306,11.2641],[-72.4297,11.2413],[-72.4154,11.2306],[-72.4088,11.1876],[-72.4116,11.1806],[-72.4043,11.1745],[-72.4041,11.1672],[-72.4372,11.1614],[-72.4367,11.1516],[-72.4433,11.1504],[-72.4862,11.1532],[-72.4991,11.1423],[-72.4959,11.1526],[-72.511,11.1625],[-72.5266,11.1619],[-72.5277,11.1567],[-72.5151,11.1423],[-72.4992,11.1348],[-72.4834,11.1383],[-72.4588,11.1159],[-72.4423,11.1273],[-72.4388,11.1153],[-72.4233,11.1258],[-72.3658,11.1394],[-72.3493,11.1514],[-72.3314,11.1443],[-72.3222,11.1468],[-72.2721,11.1383],[-72.2494,11.1402],[-71.9794,11.6309],[-71.9803,11.6567],[-71.9759,11.6693],[-71.9878,11.6777],[-71.9935,11.6943],[-71.9997,11.6929]]]}},{"type":"Feature","properties":{"divipola":44560,"mpio_cdpmp":"44560","mpio_cnmbr":"MANAURE","dpto_cnmbr":"LA GUAJIRA"},"geometry":{"type":"Polygon","coordinates":[[[-72.3468,11.8117],[-72.3556,11.8279],[-72.3819,11.8177],[-72.4123,11.7924],[-72.4389,11.7857],[-72.4441,11.7797],[-72.5148,11.7769],[-72.5321,11.7693],[-72.5463,11.7528],[-72.5614,11.7451],[-72.5925,11.7468],[-72.624,11.7215],[-72.6591,11.7185],[-72.6836,11.7067],[-72.723,11.7001],[-72.7651,11.681],[-72.8044,11.6472],[-72.8343,11.6286],[-72.8435,11.6123],[-72.8699,11.585],[-72.8784,11.5682],[-72.8906,11.5603],[-72.88,11.5506],[-72.8857,11.5398],[-72.88,11.5381],[-72.8819,11.5346],[-72.8783,11.5367],[-72.8778,11.5282],[-72.8654,11.525],[-72.866,11.5173],[-72.8546,11.5099],[-72.839,11.5153],[-72.8308,11.51],[-72.812,11.5103],[-72.8024,11.5027],[-72.7931,11.5082],[-72.786,11.5062],[-72.7853,11.4874],[-72.7682,11.4922],[-72.7575,11.478],[-72.734,11.4848],[-72.7336,11.4805],[-72.714,11.482],[-72.7149,11.4747],[-72.7058,11.4725],[-72.7091,11.4664],[-72.6969,11.4585],[-72.6981,11.4451],[-72.6933,11.4484],[-72.6838,11.4381],[-72.6811,11.4415],[-72.6616,11.4353],[-72.6562,11.4375],[-72.6465,11.4277],[-72.632,11.4239],[-72.6158,11.428],[-72.6051,11.459],[-72.5367,11.4434],[-72.5322,11.4456],[-72.5319,11.4541],[-72.49,11.4536],[-72.4854,11.4663],[-72.3983,11.5013],[-72.3818,11.5255],[-72.2624,11.526],[-72.2953,11.5516],[-72.3198,11.5543],[-72.3201,11.5878],[-72.3283,11.6009],[-72.3403,11.6108],[-72.3629,11.6167],[-72.3783,11.6347],[-72.3802,11.655],[-72.3729,11.6702],[-72.364,11.6702],[-72.3629,11.6768],[-72.3713,11.698],[-72.368,11.7097],[-72.3606,11.7248],[-72.3547,11.7222],[-72.3515,11.7259],[-72.3523,11.7337],[-72.3441,11.7497],[-72.3469,11.7597],[-72.331,11.7723],[-72.3468,11.8117]]]}},{"type":"Feature","properties":{"divipola":44078,"mpio_cdpmp":"44078","mpio_cnmbr":"BARRANCAS","dpto_cnmbr":"LA GUAJIRA"},"geometry":{"type":"Polygon","coordinates":[[[-72.5989,11.1293],[-72.5953,11.1366],[-72.6021,11.1293],[-72.6135,11.1284],[-72.6228,11.1138],[-72.6388,11.1229],[-72.6931,11.0747],[-72.6866,11.0649],[-72.6981,11.0596],[-72.6984,11.0514],[-72.7062,11.0469],[-72.7053,11.0346],[-72.7126,11.0348],[-72.7166,11.0267],[-72.7203,11.0307],[-72.7263,11.0233],[-72.7339,11.0311],[-72.7489,11.0271],[-72.7632,11.0328],[-72.8029,11.0628],[-72.8118,11.0608],[-72.8163,11.066],[-72.8348,11.0703],[-72.8503,11.0805],[-72.8568,11.097],[-72.8678,11.0957],[-72.8695,11.077],[-72.8849,11.0698],[-72.8943,11.0588],[-72.8955,11.0503],[-72.9124,11.0342],[-72.8792,10.9961],[-72.8661,10.9907],[-72.854,10.9783],[-72.8372,10.9339],[-72.8093,10.9259],[-72.7949,10.9035],[-72.7954,10.8906],[-72.7836,10.8778],[-72.7739,10.8804],[-72.7538,10.8752],[-72.746,10.8682],[-72.7356,10.8703],[-72.727,10.8634],[-72.7206,10.8651],[-72.7181,10.8572],[-72.6954,10.8423],[-72.676,10.8193],[-72.6619,10.8312],[-72.6588,10.8573],[-72.6498,10.8665],[-72.648,10.8804],[-72.6204,10.887],[-72.6124,10.8827],[-72.6039,10.8975],[-72.5795,10.911],[-72.5634,10.9279],[-72.5371,10.9749],[-72.535,10.9875],[-72.5189,11.0007],[-72.5261,11.0118],[-72.5088,11.0227],[-72.505,11.0379],[-72.4815,11.0594],[-72.4913,11.0793],[-72.4997,11.0788],[-72.5103,11.0935],[-72.5375,11.0934],[-72.559,11.1069],[-72.5772,11.1044],[-72.5839,11.11],[-72.5932,11.11],[-72.6007,11.1189],[-72.5989,11.1293]]]}},{"type":"Feature","properties":{"divipola":44098,"mpio_cdpmp":"44098","mpio_cnmbr":"DISTRACCIÓN","dpto_cnmbr":"LA GUAJIRA"},"geometry":{"type":"Polygon","coordinates":[[[-72.915,11.0318],[-72.9232,11.0307],[-72.9309,11.0185],[-72.9371,11.0173],[-72.9495,11.0294],[-72.9724,11.0258],[-72.9859,11.0304],[-73.0186,11.0073],[-73.0185,10.9914],[-73.0068,10.982],[-73.0025,10.9706],[-73.007,10.9626],[-72.9987,10.9541],[-73.0181,10.9329],[-73.0157,10.9167],[-73.0198,10.9104],[-72.9968,10.9035],[-73.0018,10.8955],[-73.0014,10.8792],[-72.9946,10.8884],[-72.9787,10.8941],[-72.9627,10.8947],[-72.9466,10.8845],[-72.9406,10.8741],[-72.948,10.8686],[-72.9504,10.8494],[-72.9438,10.8414],[-72.9436,10.8246],[-72.9193,10.8159],[-72.8989,10.7902],[-72.8805,10.7947],[-72.8971,10.8212],[-72.8924,10.831],[-72.8723,10.8397],[-72.8723,10.8563],[-72.8793,10.8577],[-72.882,10.8782],[-72.8781,10.8988],[-72.8743,10.9],[-72.8801,10.9078],[-72.8733,10.908],[-72.8718,10.9143],[-72.8789,10.912],[-72.885,10.9217],[-72.8907,10.9212],[-72.8969,10.9283],[-72.9019,10.9244],[-72.905,10.943],[-72.9118,10.9493],[-72.914,10.9429],[-72.9216,10.9507],[-72.915,10.9711],[-72.9231,10.9912],[-72.915,11.0318]]]}}],"type":"FeatureCollection","properties":{"exceededTransferLimit":false}}